[
    {
        "Altitude(m)": 605459.0036207302,
        "Argument of Periapsis(deg)": 0.0,
        "Eccentricity": 0.0,
        "Inclination(deg)": 60.0,
        "Latitude(deg)": 27.98813225334304,
        "Longitude(deg)": -102.20139971950768,
        "Mean Anomaly(deg)": -327.2727,
        "RAAN(deg)": 340.00000000000006,
        "Satellite Name": "Test1 1498",
        "Satellite Number": 1498,
        "Semi-Major Axis(m)": 6980739.136638005,
        "Time(s)": 0
    },
    {
        "Altitude(m)": 605535.7942821864,
        "Argument of Periapsis(deg)": 0.00010418945913296404,
        "Eccentricity": 0.0,
        "Inclination(deg)": 60.0,
        "Latitude(deg)": 28.501261587960297,
        "Longitude(deg)": -101.84445457948397,
        "Mean Anomaly(deg)": -326.65259385453817,
        "RAAN(deg)": 339.99957995086027,
        "Satellite Name": "Test1 1498",
        "Satellite Number": 1498,
        "Semi-Major Axis(m)": 6980739.136638005,
        "Time(s)": 10
    },
    {
        "Altitude(m)": 605614.2755693566,
        "Argument of Periapsis(deg)": 0.0002083789182659281,
        "Eccentricity": 0.0,
        "Inclination(deg)": 60.0,
        "Latitude(deg)": 29.01317339959808,
        "Longitude(deg)": -101.48364461315568,
        "Mean Anomaly(deg)": -326.03248770907635,
        "RAAN(deg)": 339.99915990172053,
        "Satellite Name": "Test1 1498",
        "Satellite Number": 1498,
        "Semi-Major Axis(m)": 6980739.136638005,
        "Time(s)": 20
    },
    {
        "Altitude(m)": 605694.3897902529,
        "Argument of Periapsis(deg)": 0.00031256837739889213,
        "Eccentricity": 0.0,
        "Inclination(deg)": 60.0,
        "Latitude(deg)": 29.523830415367122,
        "Longitude(deg)": -101.11885806490046,
        "Mean Anomaly(deg)": -325.41238156361453,
        "RAAN(deg)": 339.9987398525808,
        "Satellite Name": "Test1 1498",
        "Satellite Number": 1498,
        "Semi-Major Axis(m)": 6980739.136638005,
        "Time(s)": 30
    },
    {
        "Altitude(m)": 605776.0786435151,
        "Argument of Periapsis(deg)": 0.0004167578365318562,
        "Eccentricity": 0.0,
        "Inclination(deg)": 60.0,
        "Latitude(deg)": 30.03319436590883,
        "Longitude(deg)": -100.7499801728065,
        "Mean Anomaly(deg)": -324.7922754181527,
        "RAAN(deg)": 339.99831980344106,
        "Satellite Name": "Test1 1498",
        "Satellite Number": 1498,
        "Semi-Major Axis(m)": 6980739.136638005,
        "Time(s)": 40
    },
    {
        "Altitude(m)": 605859.2832487767,
        "Argument of Periapsis(deg)": 0.0005209472956648203,
        "Eccentricity": 0.0,
        "Inclination(deg)": 60.0,
        "Latitude(deg)": 30.54122594666119,
        "Longitude(deg)": -100.37689410985632,
        "Mean Anomaly(deg)": -324.17216927269084,
        "RAAN(deg)": 339.99789975430133,
        "Satellite Name": "Test1 1498",
        "Satellite Number": 1498,
        "Semi-Major Axis(m)": 6980739.136638005,
        "Time(s)": 50
    },
    {
        "Altitude(m)": 605943.944177241,
        "Argument of Periapsis(deg)": 0.0006251367547977843,
        "Eccentricity": 0.0,
        "Inclination(deg)": 60.0,
        "Latitude(deg)": 31.04788477776659,
        "Longitude(deg)": -99.99948041206422,
        "Mean Anomaly(deg)": -323.552063127229,
        "RAAN(deg)": 339.99747970516154,
        "Satellite Name": "Test1 1498",
        "Satellite Number": 1498,
        "Semi-Major Axis(m)": 6980739.136638005,
        "Time(s)": 60
    },
    {
        "Altitude(m)": 606030.0014824916,
        "Argument of Periapsis(deg)": 0.0007293262139307483,
        "Eccentricity": 0.0,
        "Inclination(deg)": 60.0,
        "Latitude(deg)": 31.553129362580663,
        "Longitude(deg)": -99.61761640660274,
        "Mean Anomaly(deg)": -322.9319569817672,
        "RAAN(deg)": 339.99705965602186,
        "Satellite Name": "Test1 1498",
        "Satellite Number": 1498,
        "Semi-Major Axis(m)": 6980739.136638005,
        "Time(s)": 70
    },
    {
        "Altitude(m)": 606117.3947314854,
        "Argument of Periapsis(deg)": 0.0008335156730637124,
        "Eccentricity": 0.0,
        "Inclination(deg)": 60.0,
        "Latitude(deg)": 32.05691704474375,
        "Longitude(deg)": -99.23117715297343,
        "Mean Anomaly(deg)": -322.3118508363054,
        "RAAN(deg)": 339.9966396068821,
        "Satellite Name": "Test1 1498",
        "Satellite Number": 1498,
        "Semi-Major Axis(m)": 6980739.136638005,
        "Time(s)": 80
    },
    {
        "Altitude(m)": 606206.0630357526,
        "Argument of Periapsis(deg)": 0.0009377051321966765,
        "Eccentricity": 0.0,
        "Inclination(deg)": 60.0,
        "Latitude(deg)": 32.55920396377342,
        "Longitude(deg)": -98.8400348716872,
        "Mean Anomaly(deg)": -321.6917446908435,
        "RAAN(deg)": 339.99621955774234,
        "Satellite Name": "Test1 1498",
        "Satellite Number": 1498,
        "Semi-Major Axis(m)": 6980739.136638005,
        "Time(s)": 90
    },
    {
        "Altitude(m)": 606295.9450827485,
        "Argument of Periapsis(deg)": 0.0010418945913296407,
        "Eccentricity": 0.0,
        "Inclination(deg)": 60.0,
        "Latitude(deg)": 33.0599450091398,
        "Longitude(deg)": -98.44405837355954,
        "Mean Anomaly(deg)": -321.0716385453817,
        "RAAN(deg)": 339.99579950860254,
        "Satellite Name": "Test1 1498",
        "Satellite Number": 1498,
        "Semi-Major Axis(m)": 6980739.136638005,
        "Time(s)": 100
    },
    {
        "Altitude(m)": 606386.97916738,
        "Argument of Periapsis(deg)": 0.0011460840504626045,
        "Eccentricity": 0.0,
        "Inclination(deg)": 60.0,
        "Latitude(deg)": 33.559093772789204,
        "Longitude(deg)": -98.04311400275353,
        "Mean Anomaly(deg)": -320.45153239991987,
        "RAAN(deg)": 339.99537945946287,
        "Satellite Name": "Test1 1498",
        "Satellite Number": 1498,
        "Semi-Major Axis(m)": 6980739.136638005,
        "Time(s)": 110
    },
    {
        "Altitude(m)": 606479.1032236597,
        "Argument of Periapsis(deg)": 0.0012502735095955685,
        "Eccentricity": 0.0,
        "Inclination(deg)": 60.0,
        "Latitude(deg)": 34.0566025000758,
        "Longitude(deg)": -97.63706506812116,
        "Mean Anomaly(deg)": -319.83142625445805,
        "RAAN(deg)": 339.9949594103231,
        "Satellite Name": "Test1 1498",
        "Satellite Number": 1498,
        "Semi-Major Axis(m)": 6980739.136638005,
        "Time(s)": 120
    },
    {
        "Altitude(m)": 606572.2548564768,
        "Argument of Periapsis(deg)": 0.0013544629687285324,
        "Eccentricity": 0.0,
        "Inclination(deg)": 60.0,
        "Latitude(deg)": 34.552422039072155,
        "Longitude(deg)": -97.22577127603726,
        "Mean Anomaly(deg)": -319.2113201089962,
        "RAAN(deg)": 339.99453936118334,
        "Satellite Name": "Test1 1498",
        "Satellite Number": 1498,
        "Semi-Major Axis(m)": 6980739.136638005,
        "Time(s)": 130
    },
    {
        "Altitude(m)": 606666.3713734904,
        "Argument of Periapsis(deg)": 0.0014586524278614966,
        "Eccentricity": 0.0,
        "Inclination(deg)": 60.0,
        "Latitude(deg)": 35.046501788224944,
        "Longitude(deg)": -96.80908967796346,
        "Mean Anomaly(deg)": -318.59121396353436,
        "RAAN(deg)": 339.9941193120436,
        "Satellite Name": "Test1 1498",
        "Satellite Number": 1498,
        "Semi-Major Axis(m)": 6980739.136638005,
        "Time(s)": 140
    },
    {
        "Altitude(m)": 606761.3898170951,
        "Argument of Periapsis(deg)": 0.0015628418869944607,
        "Eccentricity": 0.0,
        "Inclination(deg)": 60.0,
        "Latitude(deg)": 35.538789642328524,
        "Longitude(deg)": -96.38687410739679,
        "Mean Anomaly(deg)": -317.97110781807254,
        "RAAN(deg)": 339.9936992629039,
        "Satellite Name": "Test1 1498",
        "Satellite Number": 1498,
        "Semi-Major Axis(m)": 6980739.136638005,
        "Time(s)": 150
    },
    {
        "Altitude(m)": 606857.2469964859,
        "Argument of Periapsis(deg)": 0.0016670313461274247,
        "Eccentricity": 0.0,
        "Inclination(deg)": 60.0,
        "Latitude(deg)": 36.02923193679238,
        "Longitude(deg)": -95.9589746195208,
        "Mean Anomaly(deg)": -317.3510016726107,
        "RAAN(deg)": 339.99327921376414,
        "Satellite Name": "Test1 1498",
        "Satellite Number": 1498,
        "Semi-Major Axis(m)": 6980739.136638005,
        "Time(s)": 160
    },
    {
        "Altitude(m)": 606953.8795197654,
        "Argument of Periapsis(deg)": 0.0017712208052603888,
        "Eccentricity": 0.0,
        "Inclination(deg)": 60.0,
        "Latitude(deg)": 36.517773390181354,
        "Longitude(deg)": -95.52523844691954,
        "Mean Anomaly(deg)": -316.7308955271489,
        "RAAN(deg)": 339.9928591646244,
        "Satellite Name": "Test1 1498",
        "Satellite Number": 1498,
        "Semi-Major Axis(m)": 6980739.136638005,
        "Time(s)": 170
    },
    {
        "Altitude(m)": 607051.2238261014,
        "Argument of Periapsis(deg)": 0.001875410264393353,
        "Eccentricity": 0.0,
        "Inclination(deg)": 60.0,
        "Latitude(deg)": 37.004357045014736,
        "Longitude(deg)": -95.08550944615233,
        "Mean Anomaly(deg)": -316.110789381687,
        "RAAN(deg)": 339.9924391154846,
        "Satellite Name": "Test1 1498",
        "Satellite Number": 1498,
        "Semi-Major Axis(m)": 6980739.136638005,
        "Time(s)": 180
    },
    {
        "Altitude(m)": 607149.2162178982,
        "Argument of Periapsis(deg)": 0.0019795997235263173,
        "Eccentricity": 0.0,
        "Inclination(deg)": 60.0,
        "Latitude(deg)": 37.48892420681273,
        "Longitude(deg)": -94.63962754865551,
        "Mean Anomaly(deg)": -315.49068323622527,
        "RAAN(deg)": 339.99201906634494,
        "Satellite Name": "Test1 1498",
        "Satellite Number": 1498,
        "Semi-Major Axis(m)": 6980739.136638005,
        "Time(s)": 190
    }
]